{
    "links": {
        "self": "http://www.neowsapp.com/rest/v1/neo/3836711?api_key=iIulBulltgU6a56xZRHN4H3l9WmuAYTsLGpBGhQ2"
    },
    "id": "3836711",
    "neo_reference_id": "3836711",
    "name": "(2018 XE)",
    "designation": "2018 XE",
    "nasa_jpl_url": "http://ssd.jpl.nasa.gov/sbdb.cgi?sstr=3836711",
    "absolute_magnitude_h": 25.5,
    "estimated_diameter": {
        "kilometers": {
            "estimated_diameter_min": 0.0211132445,
            "estimated_diameter_max": 0.0472106499
        },
        "meters": {
            "estimated_diameter_min": 21.113244479,
            "estimated_diameter_max": 47.2106498806
        },
        "miles": {
            "estimated_diameter_min": 0.0131191578,
            "estimated_diameter_max": 0.0293353287
        },
        "feet": {
            "estimated_diameter_min": 69.2691770164,
            "estimated_diameter_max": 154.8905885541
        }
    },
    "is_potentially_hazardous_asteroid": false,
    "close_approach_data": [
        {
            "close_approach_date": "2016-08-16",
            "close_approach_date_full": "2016-Aug-16 01:03",
            "epoch_date_close_approach": 1471309380000,
            "relative_velocity": {
                "kilometers_per_second": "9.0403719802",
                "kilometers_per_hour": "32545.3391285787",
                "miles_per_hour": "20222.4080824216"
            },
            "miss_distance": {
                "astronomical": "0.0523046918",
                "lunar": "20.3465251102",
                "kilometers": "7824670.484286466",
                "miles": "4862024.7838505908"
            },
            "orbiting_body": "Mars"
        },
        {
            "close_approach_date": "2018-12-01",
            "close_approach_date_full": "2018-Dec-01 13:32",
            "epoch_date_close_approach": 1543671120000,
            "relative_velocity": {
                "kilometers_per_second": "8.2800702284",
                "kilometers_per_hour": "29808.2528222634",
                "miles_per_hour": "18521.6890939225"
            },
            "miss_distance": {
                "astronomical": "0.0146876169",
                "lunar": "5.7134829741",
                "kilometers": "2197236.203616003",
                "miles": "1365299.2671587214"
            },
            "orbiting_body": "Earth"
        },
        {
            "close_approach_date": "2020-08-25",
            "close_approach_date_full": "2020-Aug-25 07:56",
            "epoch_date_close_approach": 1598342160000,
            "relative_velocity": {
                "kilometers_per_second": "13.6097130799",
                "kilometers_per_hour": "48994.9670875316",
                "miles_per_hour": "30443.567188361"
            },
            "miss_distance": {
                "astronomical": "0.2263077619",
                "lunar": "88.0337193791",
                "kilometers": "33855159.144707153",
                "miles": "21036620.4114705914"
            },
            "orbiting_body": "Earth"
        },
        {
            "close_approach_date": "2021-01-14",
            "close_approach_date_full": "2021-Jan-14 08:32",
            "epoch_date_close_approach": 1610613120000,
            "relative_velocity": {
                "kilometers_per_second": "5.2437279935",
                "kilometers_per_hour": "18877.4207767012",
                "miles_per_hour": "11729.695148723"
            },
            "miss_distance": {
                "astronomical": "0.4958239309",
                "lunar": "192.8755091201",
                "kilometers": "74174203.957667183",
                "miles": "46089713.1308978054"
            },
            "orbiting_body": "Earth"
        }
    ],
    "orbital_data": {
        "orbit_id": "7",
        "orbit_determination_date": "2019-07-27 14:01:26",
        "first_observation_date": "2018-12-03",
        "last_observation_date": "2018-12-08",
        "data_arc_in_days": 5,
        "observations_used": 77,
        "orbit_uncertainty": "7",
        "minimum_orbit_intersection": ".00602643",
        "jupiter_tisserand_invariant": "4.361",
        "epoch_osculation": "2459000.5",
        "eccentricity": ".3908226039976931",
        "semi_major_axis": "1.54798829115359",
        "inclination": "5.246305222846961",
        "ascending_node_longitude": "69.6592732532384",
        "orbital_period": "703.4770503845066",
        "perihelion_distance": ".9429994762470049",
        "perihelion_argument": "323.1941207123066",
        "aphelion_distance": "2.152977106060176",
        "perihelion_time": "2459128.426175256577",
        "mean_anomaly": "294.5345764055904",
        "mean_motion": ".5117437730246227",
        "equinox": "J2000",
        "orbit_class": {
            "orbit_class_type": "APO",
            "orbit_class_description": "Near-Earth asteroid orbits which cross the Earth’s orbit similar to that of 1862 Apollo",
            "orbit_class_range": "a (semi-major axis) > 1.0 AU; q (perihelion) < 1.017 AU"
        }
    },
    "is_sentry_object": false
}